{
  "norad_id": 66391,
  "name": "STARLINK-35656",
  "history": [
    {
      "epoch": "2026-03-28T10:28:40.292544Z",
      "apogee_km": 476.0363742103209,
      "perigee_km": 474.3984225091126,
      "latitude_deg": -7.555308314266146e-06,
      "longitude_deg": 149.75586264495524,
      "height_km": 476.0428908582659,
      "semi_major_axis_km": 6853.3543983597165,
      "eccentricity": 0.0001195,
      "inclination_deg": 53.1597,
      "raan_deg": 132.7808,
      "arg_perigee_deg": 84.9099,
      "mean_anomaly_deg": 275.2038,
      "mean_motion_rev_day": 15.3019922
    }
  ]
}